satname,norad_id,inclination_deg,eccentricity,mean_motion_rev_per_day,perigee_km,apogee_km,l1,l2
STARLINK-1278,45408,53.0449,0.0003418,15.60632277,383.51763065372324,388.14147819032587,1 45408U 20019BA  26094.18161461  .00195343  00000+0  22664-2 0  9998,2 45408  53.0449   6.5570 0003418 146.0562 214.0670 15.60632277333931
STARLINK-1296,45412,53.1603,0.0002998,15.32550419,466.1535791068536,470.25864643727255,1 45412U 20019BE  26094.15281849  .00113873  00000+0  35304-2 0  9996,2 45412  53.1603  10.8152 0002998 155.5006 204.6139 15.32550419333877
STARLINK-1309,45414,53.0664,0.0007193,15.5999016,382.8188757968619,392.5521880913175,1 45414U 20019BG  26094.17164113  .00171071  00000+0  20395-2 0  9992,2 45414  53.0664   0.0458 0007193 133.9364 226.2243 15.59990160334006
STARLINK-1316,45415,53.1579,0.0001772,15.3248904,467.1757129011794,469.6021216862673,1 45415U 20019BH  26094.00230994  .00102466  00000+0  31890-2 0  9990,2 45415  53.1579  11.5696 0001772 173.1199 186.9828 15.32489040333879
STARLINK-1286,45417,53.0501,0.0003727,15.52984994,405.4871361752721,410.54553487157136,1 45417U 20019BK  26094.17406050  .00060682  00000+0  95670-3 0  9998,2 45417  53.0501   8.0909 0003727 131.1984 228.9347 15.52984994334189
STARLINK-1308,45419,53.053,0.0006628,15.55481327,396.26078314946244,405.2468808363519,1 45419U 20019BM  26094.23236142  .00112183  00000+0  15978-2 0  9996,2 45419  53.0530  29.0054 0006628 127.6846 232.4767 15.55481327333648
STARLINK-1329,45531,53.0453,3.18e-05,15.65956101,370.27581969441053,370.70503239870686,1 45531U 20025A   26093.99019006  .00088557  00000+0  84809-3 0  9995,2 45531  53.0453 317.8631 0000318 188.7813 171.3196 15.65956101329402
STARLINK-1338,45532,53.0478,0.0003429,15.5921343,387.6115267814048,392.253068705797,1 45532U 20025B   26094.05850927  .00193866  00000+0  23747-2 0  9992,2 45532  53.0478 321.7243 0003429 118.5575 241.5783 15.59213430329355
STARLINK-1350,45535,53.0717,0.0001735,15.36801044,454.39047522415876,456.76177367834407,1 45535U 20025E   26093.89937167  .00022310  00000+0  62017-3 0  9997,2 45535  53.0717 274.6897 0001735 115.0769 245.0414 15.36801044330036
STARLINK-1362,45538,53.1622,0.0001715,15.30866139,472.0518108092374,474.40182859939614,1 45538U 20025H   26094.12489347 -.00127562  00000+0 -42790-2 0  9991,2 45538  53.1622 342.8124 0001715  74.1185 286.0005 15.30866139329074
STARLINK-1368,45540,53.1616,0.0001173,15.3019347,474.43066640682446,476.03846737641743,1 45540U 20025K   26094.07295810 -.00001006  00000+0 -21861-4 0  9990,2 45540  53.1616 343.4216 0001173 102.8301 257.2831 15.30193470329052
STARLINK-1371,45542,53.0499,0.0001512,15.51428461,411.5278118197757,413.5813169488447,1 45542U 20025M   26094.03724010  .00137402  00000+0  22591-2 0  9994,2 45542  53.0499 327.9471 0001512 165.1507 194.9547 15.51428461329267
STARLINK-1372,45543,53.1587,0.0001255,15.30231972,474.25952474808764,475.9796921568086,1 45543U 20025N   26094.18034292  .00011503  00000+0  39951-3 0  9999,2 45543  53.1587 342.6224 0001255 106.0661 254.0478 15.30231972328172
STARLINK-1373,45544,53.0483,0.0003607,15.55514041,398.21367549650495,403.1038987773454,1 45544U 20025P   26094.25002315  .00117069  00000+0  16650-2 0  9993,2 45544  53.0483 325.7618 0003607 124.4009 260.8502 15.55514041  5914
STARLINK-1327,45555,53.0452,0.0005538,15.58372041,388.6186958419876,396.11770740330576,1 45555U 20025AA  26093.76086302  .00059566  00000+0  77011-3 0  9994,2 45555  53.0452 305.1613 0005538 158.0522 202.0728 15.58372041329559
STARLINK-1356,45564,53.0505,0.0004363,15.48839699,417.15311172773363,423.085270079916,1 45564U 20025AK  26093.99501620  .00134717  00000+0  24276-2 0  9990,2 45564  53.0505 313.0187 0004363 137.6441 222.4904 15.48839699329468
STARLINK-1357,45565,53.0484,0.0004201,15.60995433,381.93934860378795,387.62155184546646,1 45565U 20025AL  26093.91668981  .00234309  00000+0  26665-2 0  9999,2 45565  53.0484 275.4653 0004201 237.3212  97.3691 15.60995433  5915
STARLINK-1361,45567,53.0484,0.0005831,15.51996008,406.9402583350502,414.85763205433614,1 45567U 20025AN  26094.16146484  .00093888  00000+0  15227-2 0  9995,2 45567  53.0484 311.7117 0005831 122.8266 237.3306 15.51996008329505
STARLINK-1363,45568,53.0379,0.0003294,15.83915132,317.1750420312428,321.58736702438637,1 45568U 20025AP  26094.25002315  .00243016  00000+0  10412-2 0  9991,2 45568  53.0379 269.4354 0003294 165.5963 182.3409 15.83915132  5991
STARLINK-1366,45569,53.039,0.0003583,15.82385135,321.29643041274994,326.09896515718265,1 45569U 20025AQ  26094.25002315  .00219159  00000+0  10121-2 0  9990,2 45569  53.0390 270.4343 0003583 161.2483 353.0017 15.82385135  5991
STARLINK-1376,45570,53.1591,0.0001726,15.32513304,467.1349526829954,469.4983484831764,1 45570U 20025AR  26094.04645027  .00105759  00000+0  32872-2 0  9999,2 45570  53.1591 319.8652 0001726 195.7579 164.3370 15.32513304329386
STARLINK-1320,45572,53.0474,0.0003712,15.73048284,347.69320225177853,352.6883127789579,1 45572U 20025AT  26093.62188605  .00128857  00000+0  91404-3 0  9999,2 45572  53.0474 222.3271 0003712 102.7826 257.3607 15.73048284330723
STARLINK-1321,45573,53.0478,0.0003315,15.52812398,406.26940627383647,410.7689593230316,1 45573U 20025AU  26093.76771466  .00118842  00000+0  18645-2 0  9996,2 45573  53.0478 298.0555 0003315 171.5926 188.5140 15.52812398329353
STARLINK-1331,45578,53.0515,0.0005054,15.52722631,405.35064173719365,412.2108581988614,1 45578U 20025AZ  26094.16296810  .00114400  00000+0  18015-2 0  9998,2 45578  53.0515 302.8539 0005054 189.5712 170.5202 15.52722631329631
STARLINK-1333,45580,53.1581,0.0001089,15.3023344,474.3689062578451,475.8615445925434,1 45580U 20025BB  26094.03547784  .00012340  00000+0  42761-3 0  9992,2 45580  53.1581 320.0809 0001089  83.5196 276.5929 15.30233440329389
STARLINK-1335,45581,53.1567,0.0001257,15.29370243,476.8319164088989,478.5554722454517,1 45581U 20025BC  26093.99366661  .00002534  00000+0  10007-3 0  9992,2 45581  53.1567 317.6541 0001257  89.6418 270.4727 15.29370243329403
STARLINK-1337,45582,53.0512,0.0004735,15.63364444,374.7476893955163,381.14570065470525,1 45582U 20025BD  26094.11278003  .00177325  00000+0  18550-2 0  9991,2 45582  53.0512 297.8612 0004735 202.6690 157.4115 15.63364444329683
STARLINK-1347,45586,53.0415,0.0002032,15.59380914,388.07250332204967,390.8228497345908,1 45586U 20025BH  26093.91668981  .00253645  00000+0  30626-2 0  9998,2 45586  53.0415 267.2062 0002032 188.7660 188.1434 15.59380914  5926
STARLINK-1364,45589,53.0492,0.0006289,15.54083296,400.5528837185284,409.08448537855384,1 45589U 20025BL  26093.87088685  .00143877  00000+0  21464-2 0  9998,2 45589  53.0492 302.0509 0006289 158.3536 201.7741 15.54083296329606
STARLINK-1365,45590,53.0515,0.0004539,15.49418347,415.34153435280314,421.51145469312996,1 45590U 20025BM  26094.05352664  .00138816  00000+0  24496-2 0  9997,2 45590  53.0515 332.3338 0004539 141.0413 219.0922 15.49418347329212
STARLINK-1443,45660,53.1368,0.0002654,15.27446841,481.6267863362382,485.2689155751259,1 45660U 20035D   26093.99185860  .00064255  00000+0  23529-2 0  9991,2 45660  53.1368 308.0273 0002654 159.4242 200.6864 15.27446841322629
STARLINK-1446,45663,53.0245,0.0002187,15.4401052,432.79713871206786,435.776892976598,1 45663U 20035G   26093.67668894  .00033655  00000+0  73246-3 0  9994,2 45663  53.0245 240.5882 0002187  10.5366 349.5685 15.44010520323531
STARLINK-1448,45665,53.0478,0.0006436,15.57847091,389.53061821009214,398.24757019855224,1 45665U 20035J   26094.16757072  .00150084  00000+0  19465-2 0  9996,2 45665  53.0478 289.5655 0006436 190.2111 169.8771 15.57847091322888
STARLINK-1451,45668,53.0529,0.000172,15.11402373,530.7337769493133,533.1108373509733,1 45668U 20035M   26093.88641416  .00034690  00000+0  20382-2 0  9995,2 45668  53.0529 312.1886 0001720 104.2651 255.8531 15.11402373322556
STARLINK-1452,45669,53.0292,0.0003719,15.4882857,417.6234728744166,422.68004005147304,1 45669U 20035N   26093.91668981  .00152304  00000+0  27385-2 0  9999,2 45669  53.0292 261.1713 0003719 148.5040  80.1035 15.48828570  5781
STARLINK-1453,45670,53.0443,0.0001788,15.58375831,391.1466599182968,393.5677886529011,1 45670U 20035P   26094.25002315  .00236481  00000+0  29726-2 0  9992,2 45670  53.0443 249.6923 0001788 146.4703  34.3641 15.58375831  5920
STARLINK-1454,45671,53.0475,0.0005956,15.56364639,394.15271139285505,402.2246705559446,1 45671U 20035Q   26093.91668981  .00212385  00000+0  28860-2 0  9997,2 45671  53.0475 291.1535 0005956 170.5699 261.5526 15.56364639  5861
STARLINK-1456,45673,53.0472,0.0003208,15.54555364,401.26990775926606,405.6209710523881,1 45673U 20035S   26094.25002315  .00168652  00000+0  24654-2 0  9994,2 45673  53.0472 283.3009 0003208 248.5998 121.9602 15.54555364  5910
STARLINK-1457,45674,53.0428,0.0002747,15.87245412,308.1724234399444,311.8468912134804,1 45674U 20035T   26094.25002315  .00324157  00000+0  11710-2 0  9998,2 45674  53.0428 253.6968 0002747 204.6582 179.2869 15.87245412  5990
STARLINK-1458,45675,53.0502,0.0005798,15.46635074,422.6325901182545,430.523337590339,1 45675U 20035U   26093.97711025  .00112067  00000+0  21874-2 0  9999,2 45675  53.0502 295.1419 0005798 181.9143 178.1842 15.46635074322763
STARLINK-1460,45676,53.1585,0.0001298,15.30187955,474.36146408731656,476.1406036209055,1 45676U 20035V   26094.00649004 -.00001324  00000+0 -32608-4 0  9996,2 45676  53.1585 307.3551 0001298  81.8699 278.2449 15.30187955322593
STARLINK-1392,45677,53.1547,0.000127,15.29347673,476.8904469920617,478.63184512115913,1 45677U 20035W   26094.01295570 -.00002391  00000+0 -70570-4 0  9998,2 45677  53.1547 307.2789 0001270  89.0337 271.0809 15.29347673322632
STARLINK-1394,45679,53.0465,0.0004299,15.54408072,400.95825056200283,406.78942347967313,1 45679U 20035Y   26093.79509382  .00126838  00000+0  18755-2 0  9999,2 45679  53.0465 275.7223 0004299 249.7419 110.3129 15.54408072323050
